*******************************************************************************
JPL/HORIZONS               112 Iphigenia (A870 SA)         2020-Jun-20 08:15:31
Rec #:     112 (+COV) Soln.date: 2020-May-20_00:58:46   # obs: 3444 (1870-2020)
 
IAU76/J2000 helio. ecliptic osc. elements (au, days, deg., period=Julian yrs):
 
  EPOCH=  2455881.5 ! 2011-Nov-16.00 (TDB)         Residual RMS= .32955
   EC= .1291794782581474   QR= 2.119006583947472   TP= 2455560.5356745007
   OM= 323.5620673931909   W=  16.90568540491288   IN= 2.603885153557074
   A= 2.433344794985933    MA= 83.3403579658943    ADIST= 2.747683006024395
   PER= 3.79589            N= .259656133           ANGMOM= .026609032
   DAN= 2.12953            DDN= 2.73018            L= 340.4512917
   B= .7569638             MOID= 1.11053002        TP= 2010-Dec-30.0356745007
 
Asteroid physical parameters (km, seconds, rotational period in hours):
   GM= n.a.                RAD= 34.909             ROTPER= 31.466
   H= 9.8                  G= .150                 B-V= .696
                           ALBEDO= .042            STYP= Ch
 
ASTEROID comments: 
1: soln ref.= JPL#85, OCC=0
2: source=ORB
*******************************************************************************
 
 
*******************************************************************************
Ephemeris / WWW_USER Sat Jun 20 08:15:31 2020 Pasadena, USA      / Horizons
*******************************************************************************
Target body name: 112 Iphigenia (A870 SA)         {source: JPL#85}
Center body name: Solar System Barycenter (0)     {source: DE431}
Center-site name: BODY CENTER
*******************************************************************************
Start time      : A.D. 1969-Jun-28 00:00:00.0000 TDB
Stop  time      : A.D. 2071-May-04 00:00:00.0000 TDB
Step-size       : 7200 minutes
*******************************************************************************
Center geodetic : 0.00000000,0.00000000,0.0000000 {E-lon(deg),Lat(deg),Alt(km)}
Center cylindric: 0.00000000,0.00000000,0.0000000 {E-lon(deg),Dxy(km),Dz(km)}
Center radii    : (undefined)                                                  
Small perturbers: Yes                             {source: SB431-N16}
Output units    : AU-D
Output type     : GEOMETRIC cartesian states
Output format   : 2 (position and velocity)
Reference frame : Ecliptic of J2000.0
*******************************************************************************
Initial IAU76/J2000 heliocentric ecliptic osculating elements (au, days, deg.):
  EPOCH=  2455881.5 ! 2011-Nov-16.00 (TDB)         Residual RMS= .32955        
   EC= .1291794782581474   QR= 2.119006583947472   TP= 2455560.5356745007      
   OM= 323.5620673931909   W=  16.90568540491288   IN= 2.603885153557074       
  Equivalent ICRF heliocentric equatorial cartesian coordinates (au, au/d):
   X= 4.794052887793120E-01  Y= 2.150766044324381E+00  Z= 1.041800444790964E+00
  VX=-1.041992886600158E-02 VY= 3.317488676327229E-03 VZ= 1.273105573778202E-03
Asteroid physical parameters (km, seconds, rotational period in hours):        
   GM= n.a.                RAD= 34.909             ROTPER= 31.466              
   H= 9.8                  G= .150                 B-V= .696                   
                           ALBEDO= .042            STYP= Ch                    
*******************************************************************************
            JDTDB,            Calendar Date (TDB),        delta-T,                      X,                      Y,                      Z,                     VX,                     VY,                     VZ,
******************************************************************************************************************************************************************************************************************
$$SOE
2443060.500000000, A.D. 1976-Oct-09 00:00:00.0000,      47.182365,  1.922974878024049E+00, -9.087373703544567E-01,  1.750777511337858E-02,  5.193518883769045E-03,  1.138298821886296E-02,  5.589801019461816E-04,
2443065.500000000, A.D. 1976-Oct-14 00:00:00.0000,      47.182380,  1.948198130860905E+00, -8.514809075985357E-01,  2.029556817168139E-02,  4.895089496702082E-03,  1.151814603492580E-02,  5.560650146159879E-04,
2443070.500000000, A.D. 1976-Oct-19 00:00:00.0000,      47.182408,  1.971919105711414E+00, -7.935705480622283E-01,  2.306770629471264E-02,  4.592659989959502E-03,  1.164452148730408E-02,  5.527185723810803E-04,
2443075.500000000, A.D. 1976-Oct-24 00:00:00.0000,      47.182449,  1.994118592486556E+00, -7.350505733449394E-01,  2.582203997456411E-02,  4.286547739475189E-03,  1.176196905298974E-02,  5.489438013852644E-04,
2443080.500000000, A.D. 1976-Oct-29 00:00:00.0000,      47.182502,  2.014778984865020E+00, -6.759659564739159E-01,  2.855643662092103E-02,  3.977076736467286E-03,  1.187035775117226E-02,  5.447444413085445E-04,
2443085.500000000, A.D. 1976-Nov-03 00:00:00.0000,      47.182564,  2.033884311247639E+00, -6.163622882333600E-01,  3.126878410816703E-02,  3.664576734203367E-03,  1.196957151713527E-02,  5.401249366635587E-04,
2443090.500000000, A.D. 1976-Nov-08 00:00:00.0000,      47.182637,  2.051420261383173E+00, -5.562857017770522E-01,  3.395699427190364E-02,  3.349382370601662E-03,  1.205950951456569E-02,  5.350904252713104E-04,
2443095.500000000, A.D. 1976-Nov-13 00:00:00.0000,      47.182720,  2.067374208557010E+00, -4.957827958378317E-01,  3.661900634089280E-02,  3.031832271621954E-03,  1.214008638419781E-02,  5.296467239633870E-04,
2443100.500000000, A.D. 1976-Nov-18 00:00:00.0000,      47.182814,  2.081735227259115E+00, -4.349005568563574E-01,  3.925279029066566E-02,  2.712268140389364E-03,  1.221123242725143E-02,  5.238003115509206E-04,
2443105.500000000, A.D. 1976-Nov-23 00:00:00.0000,      47.182919,  2.094494106272013E+00, -3.736862803576406E-01,  4.185635010518571E-02,  2.391033836885984E-03,  1.227289372281016E-02,  5.175583090787169E-04,
2443110.500000000, A.D. 1976-Nov-28 00:00:00.0000,      47.183031,  2.105643357143702E+00, -3.121874919059868E-01,  4.442772693301391E-02,  2.068474453049019E-03,  1.232503217916429E-02,  5.109284573761672E-04,
2443115.500000000, A.D. 1976-Dec-03 00:00:00.0000,      47.183150,  2.115177218035230E+00, -2.504518679665097E-01,  4.696500212458442E-02,  1.744935388455743E-03,  1.236762552006312E-02,  5.039190919696897E-04,
2443120.500000000, A.D. 1976-Dec-08 00:00:00.0000,      47.183274,  2.123091652960231E+00, -1.885271569948809E-01,  4.946630013781372E-02,  1.420761432463173E-03,  1.240066720745616E-02,  4.965391155490596E-04,
2443125.500000000, A.D. 1976-Dec-13 00:00:00.0000,      47.183404,  2.129384346464762E+00, -1.264611010686713E-01,  5.192979130060290E-02,  1.096295859286497E-03,  1.242416630236269E-02,  4.887979683220183E-04,
2443130.500000000, A.D. 1976-Dec-18 00:00:00.0000,      47.183540,  2.134054693828198E+00, -6.430135836631150E-02,  5.435369442061997E-02,  7.718795423184379E-04,  1.243814726513674E-02,  4.807055966271720E-04,
2443135.500000000, A.D. 1976-Dec-23 00:00:00.0000,      47.183681,  2.137103786894579E+00, -2.095426793764102E-03,  5.673627923435710E-02,  4.478500926768118E-04,  1.244264969638797E-02,  4.722724200624044E-04,
2443140.500000000, A.D. 1976-Dec-28 00:00:00.0000,      47.183824,  2.138534395665088E+00,  6.010943094981280E-02,  5.907586868853134E-02,  1.245410257351312E-04,  1.243772802102428E-02,  4.635092973424776E-04,
2443145.500000000, A.D. 1977-Jan-02 00:00:00.0000,      48.183967,  2.138350945802474E+00,  1.222662605921666E-01,  6.137084104845454E-02, -1.977190396784608E-04,  1.242345111911979E-02,  4.544274913190163E-04,
2443150.500000000, A.D. 1977-Jan-07 00:00:00.0000,      48.184109,  2.136559492225324E+00,  1.843284875354472E-01,  6.361963183034140E-02, -5.186071437172342E-04,  1.239990190630139E-02,  4.450386335621397E-04,
2443155.500000000, A.D. 1977-Jan-12 00:00:00.0000,      48.184250,  2.133167688992725E+00,  2.462499858832177E-01,  6.582073555525128E-02, -8.378067068133065E-04,  1.236717686562406E-02,  4.353546883795020E-04,
2443160.500000000, A.D. 1977-Jan-17 00:00:00.0000,      48.184391,  2.128184755685568E+00,  3.079851450137714E-01,  6.797270732125076E-02, -1.155008209634438E-03,  1.232538553512517E-02,  4.253879160927963E-04,
2443165.500000000, A.D. 1977-Jan-22 00:00:00.0000,      48.184531,  2.121621440494809E+00,  3.694889334921806E-01,  7.007416419059412E-02, -1.469909829835191E-03,  1.227464995666407E-02,  4.151508358388414E-04,
2443170.500000000, A.D. 1977-Jan-27 00:00:00.0000,      48.184665,  2.113489980240870E+00,  4.307169601400687E-01,  7.212378639057589E-02, -1.782218032328664E-03,  1.221510409090356E-02,  4.046561882940275E-04,
2443175.500000000, A.D. 1977-Feb-01 00:00:00.0000,      48.184792,  2.103804057563375E+00,  4.916255321045330E-01,  7.412031832840589E-02, -2.091648110558724E-03,  1.214689320269154E-02,  3.939168985957144E-04,
2443180.500000000, A.D. 1977-Feb-06 00:00:00.0000,      48.184913,  2.092578755530300E+00,  5.521717097888881E-01,  7.606256942160310E-02, -2.397924677274131E-03,  1.207017322113520E-02,  3.829460396589026E-04,
2443185.500000000, A.D. 1977-Feb-11 00:00:00.0000,      48.185027,  2.079830509921461E+00,  6.123133585296769E-01,  7.794941474634416E-02, -2.700782103905882E-03,  1.198511007877283E-02,  3.717567960721603E-04,
2443190.500000000, A.D. 1977-Feb-16 00:00:00.0000,      48.185135,  2.065577059444670E+00,  6.720091969265011E-01,  7.977979550711232E-02, -2.999964908077498E-03,  1.189187903426190E-02,  3.603624287503782E-04,
2443195.500000000, A.D. 1977-Feb-21 00:00:00.0000,      48.185235,  2.049837394144249E+00,  7.312188417531832E-01,  8.155271933185210E-02, -3.295228089169864E-03,  1.179066398294413E-02,  3.487762405114827E-04,
